{
  "norad_id": 63136,
  "name": "STARLINK-11613 [DTC]",
  "history": [
    {
      "epoch": "2026-03-28T13:02:47.250816Z",
      "apogee_km": 357.82678380307607,
      "perigee_km": 354.47984151768287,
      "latitude_deg": -1.253582162222108e-05,
      "longitude_deg": 115.74547343219555,
      "height_km": 355.9971661137222,
      "semi_major_axis_km": 6734.290312660379,
      "eccentricity": 0.0002485,
      "inclination_deg": 43.0028,
      "raan_deg": 137.4049,
      "arg_perigee_deg": 267.5928,
      "mean_anomaly_deg": 92.4655,
      "mean_motion_rev_day": 15.70959576
    }
  ]
}